EUTELSAT 16A            
1 37836U 11057A   25204.91353829  .00000093  00000+0  00000+0 0  9994
2 37836   0.0642 351.0741 0005342 132.3247 163.3608  1.00273929 50496
EUTELSAT 21B            
1 38992U 12062B   25204.91466495  .00000120  00000+0  00000+0 0  9990
2 38992   0.0670 352.1290 0002992 132.6478 168.0047  1.00275313 46571
EUTELSAT 70B            
1 39020U 12069A   25204.92428500 -.00000054  00000+0  00000+0 0  9993
2 39020   0.0626 352.4347 0003596 130.2169 222.4774  1.00271147 46217
EUTELSAT 117 WEST A     
1 39122U 13012A   25204.88708801 -.00000023  00000+0  00000+0 0  9991
2 39122   0.0100  47.2360 0002792  86.1068  11.0524  1.00272458 45147
EUTELSAT 7B             
1 39163U 13022A   25204.91171828  .00000037  00000+0  00000+0 0  9998
2 39163   0.0672 351.3219 0002897  55.3528 230.3982  1.00271428 44658
EXPRESS-AT1             
1 39612U 14010A   25204.49317862  .00000069  00000+0  00000+0 0  9993
2 39612   0.0181  58.1514 0000141 232.0296 244.8346  1.00270133 41527
EXPRESS-AT2             
1 39613U 14010B   25204.63873851 -.00000292  00000+0  00000+0 0  9994
2 39613   0.0180  58.9579 0000141 278.3639 334.0895  1.00269317 41208
EUTELSAT 3B             
1 39773U 14030A   25204.91093828  .00000010  00000+0  00000+0 0  9999
2 39773   0.0617 353.3781 0003962 143.4777 136.0682  1.00274472 40926
